CCSDS_OMM_VERS = 2.0
CREATION_DATE  = 
ORIGINATOR     = 

OBJECT_NAME    = NAVSTAR 85 (USA 581)
OBJECT_ID      = 2026-017A
CENTER_NAME    = EARTH
REF_FRAME      = TEME
TIME_SYSTEM    = UTC
MEAN_ELEMENT_THEORY = SGP/SGP4

EPOCH          = 2026-02-24T12:28:07.091328
MEAN_MOTION    = 2.00560949
ECCENTRICITY   = .00012063
INCLINATION    = 55.0130
RA_OF_ASC_NODE = 93.2756
ARG_OF_PERICENTER = 28.8360
MEAN_ANOMALY   = 331.2338

EPHEMERIS_TYPE = 0
CLASSIFICATION_TYPE = U
NORAD_CAT_ID   = 67588
ELEMENT_SET_NO = 999
REV_AT_EPOCH   = 42935
BSTAR          = 0
MEAN_MOTION_DOT = -.3E-7
MEAN_MOTION_DDOT = 0

CCSDS_OMM_VERS = 2.0
CREATION_DATE  = 
ORIGINATOR     = 

OBJECT_NAME    = STARLINK-36641
OBJECT_ID      = 2026-018A
CENTER_NAME    = EARTH
REF_FRAME      = TEME
TIME_SYSTEM    = UTC
MEAN_ELEMENT_THEORY = SGP/SGP4

EPOCH          = 2026-02-25T08:00:01.999008
MEAN_MOTION    = 15.75231137
ECCENTRICITY   = .0000908
INCLINATION    = 97.2850
RA_OF_ASC_NODE = 121.4835
ARG_OF_PERICENTER = 85.4455
MEAN_ANOMALY   = 125.2423

EPHEMERIS_TYPE = 0
CLASSIFICATION_TYPE = U
NORAD_CAT_ID   = 67589
ELEMENT_SET_NO = 999
REV_AT_EPOCH   = 536
BSTAR          = -.86051E-3
MEAN_MOTION_DOT = -.126814E-2
MEAN_MOTION_DDOT = 0

CCSDS_OMM_VERS = 2.0
CREATION_DATE  = 
ORIGINATOR     = 

OBJECT_NAME    = STARLINK-36376
OBJECT_ID      = 2026-018B
CENTER_NAME    = EARTH
REF_FRAME      = TEME
TIME_SYSTEM    = UTC
MEAN_ELEMENT_THEORY = SGP/SGP4

EPOCH          = 2026-02-25T03:37:38.889984
MEAN_MOTION    = 15.75224995
ECCENTRICITY   = .00014572
INCLINATION    = 97.2851
RA_OF_ASC_NODE = 121.3361
ARG_OF_PERICENTER = 117.3758
MEAN_ANOMALY   = 242.7656

EPHEMERIS_TYPE = 0
CLASSIFICATION_TYPE = U
NORAD_CAT_ID   = 67590
ELEMENT_SET_NO = 999
REV_AT_EPOCH   = 533
BSTAR          = .41016619E-3
MEAN_MOTION_DOT = .61585E-3
MEAN_MOTION_DDOT = 0

CCSDS_OMM_VERS = 2.0
CREATION_DATE  = 
ORIGINATOR     = 

OBJECT_NAME    = STARLINK-36391
OBJECT_ID      = 2026-018C
CENTER_NAME    = EARTH
REF_FRAME      = TEME
TIME_SYSTEM    = UTC
MEAN_ELEMENT_THEORY = SGP/SGP4

EPOCH          = 2026-02-25T02:58:34.059648
MEAN_MOTION    = 15.81036155
ECCENTRICITY   = .00020468
INCLINATION    = 97.2858
RA_OF_ASC_NODE = 121.3747
ARG_OF_PERICENTER = 141.3073
MEAN_ANOMALY   = 218.8342

EPHEMERIS_TYPE = 0
CLASSIFICATION_TYPE = U
NORAD_CAT_ID   = 67591
ELEMENT_SET_NO = 999
REV_AT_EPOCH   = 533
BSTAR          = .19291189E-2
MEAN_MOTION_DOT = .390295E-2
MEAN_MOTION_DDOT = 0

CCSDS_OMM_VERS = 2.0
CREATION_DATE  = 
ORIGINATOR     = 

OBJECT_NAME    = STARLINK-36603
OBJECT_ID      = 2026-018D
CENTER_NAME    = EARTH
REF_FRAME      = TEME
TIME_SYSTEM    = UTC
MEAN_ELEMENT_THEORY = SGP/SGP4

EPOCH          = 2026-02-25T03:31:32.935872
MEAN_MOTION    = 15.75234987
ECCENTRICITY   = .00033046
INCLINATION    = 97.2844
RA_OF_ASC_NODE = 121.3421
ARG_OF_PERICENTER = 112.2456
MEAN_ANOMALY   = 247.9160

EPHEMERIS_TYPE = 0
CLASSIFICATION_TYPE = U
NORAD_CAT_ID   = 67592
ELEMENT_SET_NO = 999
REV_AT_EPOCH   = 533
BSTAR          = .50932338E-3
MEAN_MOTION_DOT = .76691E-3
MEAN_MOTION_DDOT = 0

CCSDS_OMM_VERS = 2.0
CREATION_DATE  = 
ORIGINATOR     = 

OBJECT_NAME    = STARLINK-36634
OBJECT_ID      = 2026-018E
CENTER_NAME    = EARTH
REF_FRAME      = TEME
TIME_SYSTEM    = UTC
MEAN_ELEMENT_THEORY = SGP/SGP4

EPOCH          = 2026-02-25T03:20:22.521984
MEAN_MOTION    = 15.75196924
ECCENTRICITY   = .00023571
INCLINATION    = 97.2833
RA_OF_ASC_NODE = 121.3525
ARG_OF_PERICENTER = 346.7800
MEAN_ANOMALY   = 13.3403

EPHEMERIS_TYPE = 0
CLASSIFICATION_TYPE = U
NORAD_CAT_ID   = 67593
ELEMENT_SET_NO = 999
REV_AT_EPOCH   = 533
BSTAR          = .13594598E-2
MEAN_MOTION_DOT = .207723E-2
MEAN_MOTION_DDOT = 0

CCSDS_OMM_VERS = 2.0
CREATION_DATE  = 
ORIGINATOR     = 

OBJECT_NAME    = STARLINK-36638
OBJECT_ID      = 2026-018F
CENTER_NAME    = EARTH
REF_FRAME      = TEME
TIME_SYSTEM    = UTC
MEAN_ELEMENT_THEORY = SGP/SGP4

EPOCH          = 2026-02-25T02:54:14.374080
MEAN_MOTION    = 15.80938380
ECCENTRICITY   = .00024455
INCLINATION    = 97.2851
RA_OF_ASC_NODE = 121.3787
ARG_OF_PERICENTER = 118.1980
MEAN_ANOMALY   = 241.9536

EPHEMERIS_TYPE = 0
CLASSIFICATION_TYPE = U
NORAD_CAT_ID   = 67594
ELEMENT_SET_NO = 999
REV_AT_EPOCH   = 533
BSTAR          = .11991462E-2
MEAN_MOTION_DOT = .237241E-2
MEAN_MOTION_DDOT = 0

CCSDS_OMM_VERS = 2.0
CREATION_DATE  = 
ORIGINATOR     = 

OBJECT_NAME    = STARLINK-36628
OBJECT_ID      = 2026-018G
CENTER_NAME    = EARTH
REF_FRAME      = TEME
TIME_SYSTEM    = UTC
MEAN_ELEMENT_THEORY = SGP/SGP4

EPOCH          = 2026-02-25T03:45:47.701440
MEAN_MOTION    = 15.75248817
ECCENTRICITY   = .00012968
INCLINATION    = 97.2841
RA_OF_ASC_NODE = 121.3277
ARG_OF_PERICENTER = 19.7393
MEAN_ANOMALY   = 340.3923

EPHEMERIS_TYPE = 0
CLASSIFICATION_TYPE = U
NORAD_CAT_ID   = 67595
ELEMENT_SET_NO = 999
REV_AT_EPOCH   = 533
BSTAR          = .16000193E-2
MEAN_MOTION_DOT = .246157E-2
MEAN_MOTION_DDOT = 0

CCSDS_OMM_VERS = 2.0
CREATION_DATE  = 
ORIGINATOR     = 

OBJECT_NAME    = STARLINK-36629
OBJECT_ID      = 2026-018H
CENTER_NAME    = EARTH
REF_FRAME      = TEME
TIME_SYSTEM    = UTC
MEAN_ELEMENT_THEORY = SGP/SGP4

EPOCH          = 2026-02-25T03:56:57.440544
MEAN_MOTION    = 15.75229408
ECCENTRICITY   = .00015686
INCLINATION    = 97.2853
RA_OF_ASC_NODE = 121.3166
ARG_OF_PERICENTER = 104.5094
MEAN_ANOMALY   = 255.6345

EPHEMERIS_TYPE = 0
CLASSIFICATION_TYPE = U
NORAD_CAT_ID   = 67596
ELEMENT_SET_NO = 999
REV_AT_EPOCH   = 533
BSTAR          = .39248258E-3
MEAN_MOTION_DOT = .58918E-3
MEAN_MOTION_DDOT = 0

CCSDS_OMM_VERS = 2.0
CREATION_DATE  = 
ORIGINATOR     = 

OBJECT_NAME    = STARLINK-36384
OBJECT_ID      = 2026-018J
CENTER_NAME    = EARTH
REF_FRAME      = TEME
TIME_SYSTEM    = UTC
MEAN_ELEMENT_THEORY = SGP/SGP4

EPOCH          = 2026-02-25T12:00:01.999296
MEAN_MOTION    = 15.75176861
ECCENTRICITY   = .0001387
INCLINATION    = 97.2849
RA_OF_ASC_NODE = 121.7670
ARG_OF_PERICENTER = 96.0628
MEAN_ANOMALY   = 231.0789

EPHEMERIS_TYPE = 0
CLASSIFICATION_TYPE = U
NORAD_CAT_ID   = 67597
ELEMENT_SET_NO = 999
REV_AT_EPOCH   = 544
BSTAR          = -.10976E-3
MEAN_MOTION_DOT = -.1646E-3
MEAN_MOTION_DDOT = 0

CCSDS_OMM_VERS = 2.0
CREATION_DATE  = 
ORIGINATOR     = 

OBJECT_NAME    = STARLINK-36358
OBJECT_ID      = 2026-018K
CENTER_NAME    = EARTH
REF_FRAME      = TEME
TIME_SYSTEM    = UTC
MEAN_ELEMENT_THEORY = SGP/SGP4

EPOCH          = 2026-02-25T03:48:19.188288
MEAN_MOTION    = 15.75215632
ECCENTRICITY   = .0002218
INCLINATION    = 97.2845
RA_OF_ASC_NODE = 121.3251
ARG_OF_PERICENTER = 107.3373
MEAN_ANOMALY   = 252.8135

EPHEMERIS_TYPE = 0
CLASSIFICATION_TYPE = U
NORAD_CAT_ID   = 67598
ELEMENT_SET_NO = 999
REV_AT_EPOCH   = 533
BSTAR          = .27514075E-3
MEAN_MOTION_DOT = .41156E-3
MEAN_MOTION_DDOT = 0

CCSDS_OMM_VERS = 2.0
CREATION_DATE  = 
ORIGINATOR     = 

OBJECT_NAME    = STARLINK-36582
OBJECT_ID      = 2026-018L
CENTER_NAME    = EARTH
REF_FRAME      = TEME
TIME_SYSTEM    = UTC
MEAN_ELEMENT_THEORY = SGP/SGP4

EPOCH          = 2026-02-25T03:25:57.742752
MEAN_MOTION    = 15.75167624
ECCENTRICITY   = .00053964
INCLINATION    = 97.2850
RA_OF_ASC_NODE = 121.3475
ARG_OF_PERICENTER = 114.7690
MEAN_ANOMALY   = 245.4137

EPHEMERIS_TYPE = 0
CLASSIFICATION_TYPE = U
NORAD_CAT_ID   = 67599
ELEMENT_SET_NO = 999
REV_AT_EPOCH   = 538
BSTAR          = .16244739E-2
MEAN_MOTION_DOT = .249267E-2
MEAN_MOTION_DDOT = 0

